ONEWEB-0401             
1 50481U 21132N   24062.58946260  .00000007  00000+0 -14227-4 0  9998
2 50481  87.9217 141.9746 0002236  98.8892 261.2493 13.18687117111354
ONEWEB-0402             
1 50482U 21132P   24062.25117615  .00000060  00000+0  12037-3 0  9991
2 50482  87.9217 142.0384 0002129  87.8986 272.2389 13.18686859111334
ONEWEB-0403             
1 50483U 21132Q   24062.73012837 -.00001365  00000+0 -34961-2 0  9995
2 50483  87.9217 141.9492 0002137 105.9720 254.1648 13.18691731112636
ONEWEB-0404             
1 50484U 21132R   24062.35579392 -.00000075  00000+0 -24730-3 0  9999
2 50484  87.9030 187.4274 0002077 119.5278 240.6057 13.11416003106014
ONEWEB-0405             
1 50485U 21132S   24062.74595701  .00000043  00000+0  77107-4 0  9995
2 50485  87.9219 141.9355 0002335  97.8874 262.2523 13.18686485113045
ONEWEB-0406             
1 50486U 21132T   24062.73488750  .00000008  00000+0 -12395-4 0  9990
2 50486  87.9219 141.9465 0001996 116.5111 243.6226 13.18684255112677
ONEWEB-0407             
1 50487U 21132U   24062.57680844 -.00000066  00000+0 -19897-3 0  9999
2 50487  87.9216 141.9847 0002173 103.0040 257.1335 13.18686858111300
ONEWEB-0409             
1 50488U 21132V   24062.81194998  .00000068  00000+0  15540-3 0  9998
2 50488  87.9021 187.3431 0001904 128.3541 231.7758 13.11413507107242
